OBJECT_NAME,OBJECT_ID,EPOCH,MEAN_MOTION,ECCENTRICITY,INCLINATION,RA_OF_ASC_NODE,ARG_OF_PERICENTER,MEAN_ANOMALY,EPHEMERIS_TYPE,CLASSIFICATION_TYPE,NORAD_CAT_ID,ELEMENT_SET_NO,REV_AT_EPOCH,BSTAR,MEAN_MOTION_DOT,MEAN_MOTION_DDOT
OCEANSAT-2,2009-051A,2026-07-16T05:20:59.012736,13.99655952,.0017404,98.2320,181.1754,150.5263,209.6889,0,U,35931,999,88339,-.14117E-4,-.58E-6,0
WORLDVIEW-2 (WV-2),2009-055A,2026-07-16T04:20:47.484960,14.37907087,.0005351,98.4756,270.2360,127.4641,232.7033,0,U,35946,999,87981,.29152E-4,.44E-6,0
SMOS,2009-059A,2026-07-16T02:23:48.818112,14.39736354,.0001165,98.4429,24.0111,97.2447,262.8874,0,U,36036,999,87761,.51707E-4,.118E-5,0
YAOGAN-7,2009-069A,2026-07-16T03:09:26.650080,14.78036013,.0023453,98.0031,82.8149,308.1841,51.7257,0,U,36110,999,89390,.33865E-4,.192E-5,0
TANDEM-X,2010-030A,2026-07-07T11:29:58.986816,15.19154052,.0001887,97.4457,195.8973,94.3019,265.8431,0,U,36605,999,88972,.21566E-4,.386E-5,0
CARTOSAT-2B,2010-035A,2026-07-16T04:01:11.766720,14.78651445,.0012686,97.9938,247.5291,96.9973,263.2681,0,U,36795,999,86413,.58642E-4,.378E-5,0
YAOGAN-10,2010-038A,2026-07-16T04:31:09.289344,14.85433200,.00017,97.8966,220.3615,83.5383,7.3167,0,U,36834,999,86151,.15067E-3,.1245E-4,0
COSMO-SKYMED 4,2010-060A,2026-07-16T03:15:27.103104,14.82149361,.0001487,97.8886,20.3163,86.8479,273.2904,0,U,37216,999,84885,.55699E-4,.391E-5,0
RESOURCESAT-2,2011-015A,2026-07-16T03:46:15.686400,14.21599677,.0011606,98.7632,264.3967,168.3897,191.7550,0,U,37387,999,79029,.3225E-4,.27E-6,0
HAIYANG-2A,2011-043A,2026-07-16T05:46:56.741664,13.73274327,.0002315,99.3395,199.2509,20.6134,339.5107,0,U,37781,999,75064,.18916E-3,.132E-5,0
RASAT,2011-044D,2026-07-16T04:54:28.715328,14.68192520,.002194,98.0588,288.1586,99.7751,290.6522,0,U,37791,999,79744,.60502E-5,-.14E-6,0
SRMSAT,2011-058D,2026-07-16T04:47:31.733376,14.11581214,.001173,19.9709,243.8664,162.2183,240.1222,0,U,37841,999,76192,.36066E-4,.332E-5,0
PLEIADES 1A,2011-076F,2026-07-16T04:56:05.443584,14.58547013,.0001647,98.1975,271.9170,79.4506,303.7595,0,U,38012,999,77622,.23267E-4,.62E-6,0
ZIYUAN 1-02C (ZY 1-02C),2011-079A,2026-07-16T05:32:53.081952,14.38236326,.0005643,98.4064,263.9311,211.3391,239.7075,0,U,38038,999,76338,.81605E-4,.205E-5,0
ARIRANG-3 (KOMPSAT-3),2012-025B,2026-07-16T04:24:47.500704,14.62229456,.0006165,98.1185,154.1465,36.2798,323.8821,0,U,38338,999,75558,.44718E-4,.179E-5,0
EXACTVIEW-1 (ADS-1B),2012-039C,2026-07-15T21:19:45.519456,14.24992315,.00119555,98.9806,314.9310,89.7225,270.5323,0,U,38709,999,72679,.34981974E-4,.35E-6,0
SPOT 6,2012-047A,2026-07-16T03:33:06.918336,14.58538611,.0001105,98.2112,264.1156,86.8243,273.3083,0,U,38755,999,73727,-.35697E-5,-.62E-6,0
PLEIADES 1B,2012-068A,2026-07-16T03:59:53.866752,14.58534103,.0001552,98.1945,271.8175,78.8169,281.3205,0,U,39019,999,72507,-.66927E-5,-.77E-6,0
GOKTURK 2,2012-073A,2026-07-16T04:08:07.163232,14.75568451,.0000941,97.6803,33.1494,96.4116,263.7201,0,U,39030,999,72878,.41217E-4,.234E-5,0
LANDSAT 8,2013-008A,2026-07-15T20:47:10.119840,14.57094696,.00013795,98.2290,266.6584,93.9816,266.1540,0,U,39084,999,70207,.4349447E-4,.15E-5,0
SARAL,2013-009A,2026-07-15T22:48:37.795680,14.32895907,.00017426,98.5555,23.1540,164.8094,195.3143,0,U,39086,999,69972,.20972802E-4,.14E-6,0
GAOFEN-1,2013-018A,2026-07-15T22:22:10.905888,14.76517962,.00170839,97.9091,268.4139,168.7601,191.3993,0,U,39150,999,71248,-.11016712E-4,-.128E-5,0
VNREDSAT 1,2013-021B,2026-07-16T04:30:03.221856,14.64884386,.000157,97.9065,249.4885,79.6005,280.5375,0,U,39160,999,70453,.5138E-4,.229E-5,0
ARIRANG-5 (KOMPSAT-5),2013-042A,2026-07-16T03:55:41.108736,15.04494952,.0005338,97.6201,23.4569,55.3020,304.8708,0,U,39227,999,70821,.10525E-4,.87E-6,0
SKYSAT-A,2013-066C,2026-07-16T02:11:55.332960,15.13117895,.0020616,97.3803,245.5676,210.1814,149.8231,0,U,39418,999,69285,.86164E-4,.1469E-4,0
DUBAISAT-2,2013-066D,2026-07-16T05:20:44.628864,15.10381126,.000923,97.4576,186.6121,299.4167,60.6141,0,U,39419,999,69077,.148E-3,.2369E-4,0
GPM-CORE,2014-009C,2026-07-16T03:30:54.831744,15.45049420,.0010932,64.9691,211.0981,262.3716,97.6183,0,U,39574,999,70228,.68951E-4,.3018E-4,0
SENTINEL-1A,2014-016A,2026-07-16T04:01:09.916896,14.59196272,.0001424,98.1768,204.2772,86.2324,273.9039,0,U,39634,999,65424,.28085E-4,.87E-6,0
KAZEOSAT 1,2014-024A,2026-07-15T22:55:47.628768,14.42036823,.00012257,98.3203,268.6850,82.1571,277.9758,0,U,39731,999,64270,-.11746508E-4,-.81E-6,0
ALOS-2,2014-029A,2026-07-16T05:18:40.383936,14.79467160,.0001573,97.9235,293.9696,92.0748,268.0643,0,U,39766,999,65587,.52308E-4,.339E-5,0
KAZEOSAT 2,2014-033A,2026-07-16T04:40:19.397280,14.85502808,.0007406,97.5389,35.2723,215.5676,144.5047,0,U,40010,999,65326,.66789E-4,.527E-5,0
